FLOCK 4G-6              
1 62660U 25009BD  26068.71061311  .00012261  00000+0  45910-3 0  9991
2 62660  97.3980 150.7943 0002380 348.2637  11.8546 15.27432125121307
STARLINK-34018          
1 63836U 25093A   26068.44732634  .00034620  00000+0  12626-2 0  9993
2 63836  43.0028  79.3993 0002287 280.0045  80.0548 15.27555100 47932
